[{"OBJECT_NAME":"NUSAT-48 (HENRIETTA LEAVITT)","OBJECT_ID":"2024-149AG","EPOCH":"2026-03-09T19:19:17.269536","MEAN_MOTION":15.29812597,"ECCENTRICITY":0.00027538,"INCLINATION":97.3923,"RA_OF_ASC_NODE":150.8264,"ARG_OF_PERICENTER":263.3026,"MEAN_ANOMALY":96.7901,"EPHEMERIS_TYPE":0,"CLASSIFICATION_TYPE":"U","NORAD_CAT_ID":60498,"ELEMENT_SET_NO":999,"REV_AT_EPOCH":8694,"BSTAR":0.00045211745,"MEAN_MOTION_DOT":0.00012988,"MEAN_MOTION_DDOT":0},{"OBJECT_NAME":"STARLINK-35454","OBJECT_ID":"2025-245C","EPOCH":"2026-03-09T21:12:29.316096","MEAN_MOTION":15.30201576,"ECCENTRICITY":0.00011603,"INCLINATION":53.1571,"RA_OF_ASC_NODE":283.1826,"ARG_OF_PERICENTER":89.586,"MEAN_ANOMALY":270.5273,"EPHEMERIS_TYPE":0,"CLASSIFICATION_TYPE":"U","NORAD_CAT_ID":66236,"ELEMENT_SET_NO":999,"REV_AT_EPOCH":2112,"BSTAR":0.00087154189,"MEAN_MOTION_DOT":0.00025543,"MEAN_MOTION_DDOT":0}]
